{"type": "FeatureCollection", "features": [ {"type": "Feature", "properties": {"norad_id": 43683, "name": "BEIDOU-3 G1 (C59)", "group": "gnss", "lat": -0.9586310087562855, "lon": -55.64691676737898, "alt_km": 35791.7461164849, "timestamp": "2025-12-08T05:48:09.278802+00:00", "meta": {"OBJECT_NAME": "BEIDOU-3 G1 (C59)", "OBJECT_ID": "2018-085A", "EPOCH": "2025-12-07T22:51:34.164864", "MEAN_MOTION": 1.00272268, "ECCENTRICITY": 0.00018224, "INCLINATION": 2.5954, "RA_OF_ASC_NODE": 103.0854, "ARG_OF_PERICENTER": 63.7825, "MEAN_ANOMALY": 33.0599, "EPHEMERIS_TYPE": 0, "CLASSIFICATION_TYPE": "U", "NORAD_CAT_ID": 43683, "ELEMENT_SET_NO": 999, "REV_AT_EPOCH": 2614, "BSTAR": 0, "MEAN_MOTION_DOT": -2.75e-06, "MEAN_MOTION_DDOT": 0}, "tle": {"line1": "1 43683U 18085A   25341.95247876 -.00000275  00000+0  00000+0 0  9992", "line2": "2 43683   2.5954 103.0854 0001822  63.7825  33.0599  1.00272268 26146"}}, "geometry": {"type": "Point", "coordinates": [-55.64691676737898, -0.9586310087562855]}}, {"type": "Feature", "properties": {"norad_id": 43687, "name": "COSMOS 2529 (757)", "group": "gnss", "lat": 33.295908398536184, "lon": -142.50847372463238, "alt_km": 19140.97008606929, "timestamp": "2025-12-08T05:48:09.278816+00:00", "meta": {"OBJECT_NAME": "COSMOS 2529 (757)", "OBJECT_ID": "2018-086A", "EPOCH": "2025-12-03T00:44:36.468960", "MEAN_MOTION": 2.13101888, "ECCENTRICITY": 0.00072932, "INCLINATION": 64.2917, "RA_OF_ASC_NODE": 199.2166, "ARG_OF_PERICENTER": 254.4618, "MEAN_ANOMALY": 105.5545, "EPHEMERIS_TYPE": 0, "CLASSIFICATION_TYPE": "U", "NORAD_CAT_ID": 43687, "ELEMENT_SET_NO": 999, "REV_AT_EPOCH": 5510, "BSTAR": 0, "MEAN_MOTION_DOT": 1.06e-06, "MEAN_MOTION_DDOT": 0}, "tle": {"line1": "1 43687U 18086A   25337.03097765  .00000106  00000+0  00000+0 0  9993", "line2": "2 43687  64.2917 199.2166 0007293 254.4618 105.5545  2.13101888 55102"}}, "geometry": {"type": "Point", "coordinates": [-142.50847372463238, 33.295908398536184]}}, {"type": "Feature", "properties": {"norad_id": 43706, "name": "BEIDOU-3 M17 (C36)", "group": "gnss", "lat": 43.98141318472925, "lon": -126.99999589389493, "alt_km": 21529.78753626453, "timestamp": "2025-12-08T05:48:09.278827+00:00", "meta": {"OBJECT_NAME": "BEIDOU-3 M17 (C36)", "OBJECT_ID": "2018-093A", "EPOCH": "2025-12-03T14:10:37.280064", "MEAN_MOTION": 1.86228161, "ECCENTRICITY": 0.00063465, "INCLINATION": 54.1727, "RA_OF_ASC_NODE": 188.9327, "ARG_OF_PERICENTER": 306.3477, "MEAN_ANOMALY": 234.3147, "EPHEMERIS_TYPE": 0, "CLASSIFICATION_TYPE": "U", "NORAD_CAT_ID": 43706, "ELEMENT_SET_NO": 999, "REV_AT_EPOCH": 4789, "BSTAR": 0, "MEAN_MOTION_DOT": 1.14e-06, "MEAN_MOTION_DDOT": 0}, "tle": {"line1": "1 43706U 18093A   25337.59070926  .00000114  00000+0  00000+0 0  9993", "line2": "2 43706  54.1727 188.9327 0006346 306.3477 234.3147  1.86228161 47892"}}, "geometry": {"type": "Point", "coordinates": [-126.99999589389493, 43.98141318472925]}}, {"type": "Feature", "properties": {"norad_id": 43707, "name": "BEIDOU-3 M18 (C37)", "group": "gnss", "lat": 22.468500894088663, "lon": -8.614879547633276, "alt_km": 21542.45662199833, "timestamp": "2025-12-08T05:48:09.278840+00:00", "meta": {"OBJECT_NAME": "BEIDOU-3 M18 (C37)", "OBJECT_ID": "2018-093B", "EPOCH": "2025-12-06T22:35:39.985728", "MEAN_MOTION": 1.86226513, "ECCENTRICITY": 0.00063709, "INCLINATION": 54.1733, "RA_OF_ASC_NODE": 188.8105, "ARG_OF_PERICENTER": 351.8977, "MEAN_ANOMALY": 8.1663, "EPHEMERIS_TYPE": 0, "CLASSIFICATION_TYPE": "U", "NORAD_CAT_ID": 43707, "ELEMENT_SET_NO": 999, "REV_AT_EPOCH": 4795, "BSTAR": 0, "MEAN_MOTION_DOT": 6.5e-07, "MEAN_MOTION_DDOT": 0}, "tle": {"line1": "1 43707U 18093B   25340.94143502  .00000065  00000+0  00000+0 0  9993", "line2": "2 43707  54.1733 188.8105 0006370 351.8977   8.1663  1.86226513 47956"}}, "geometry": {"type": "Point", "coordinates": [-8.614879547633276, 22.468500894088663]}}, {"type": "Feature", "properties": {"norad_id": 43873, "name": "GPS BIII-1  (PRN 04)", "group": "gnss", "lat": 35.307294436989736, "lon": -109.31810917722338, "alt_km": 20127.925147731286, "timestamp": "2025-12-08T05:48:09.278854+00:00", "meta": {"OBJECT_NAME": "GPS BIII-1  (PRN 04)", "OBJECT_ID": "2018-109A", "EPOCH": "2025-12-07T19:01:44.970240", "MEAN_MOTION": 2.00553303, "ECCENTRICITY": 0.00371945, "INCLINATION": 55.5649, "RA_OF_ASC_NODE": 99.742, "ARG_OF_PERICENTER": 194.7873, "MEAN_ANOMALY": 336.926, "EPHEMERIS_TYPE": 0, "CLASSIFICATION_TYPE": "U", "NORAD_CAT_ID": 43873, "ELEMENT_SET_NO": 999, "REV_AT_EPOCH": 5123, "BSTAR": 0, "MEAN_MOTION_DOT": 3e-08, "MEAN_MOTION_DDOT": 0}, "tle": {"line1": "1 43873U 18109A   25341.79288160  .00000003  00000+0  00000+0 0  9991", "line2": "2 43873  55.5649  99.7420 0037194 194.7873 336.9260  2.00553303 51236"}}, "geometry": {"type": "Point", "coordinates": [-109.31810917722338, 35.307294436989736]}}, {"type": "Feature", "properties": {"norad_id": 44204, "name": "BEIDOU-3 IGSO-1 (C38)", "group": "gnss", "lat": -46.45682536397747, "lon": -100.08096431778172, "alt_km": 35689.53429343508, "timestamp": "2025-12-08T05:48:09.278866+00:00", "meta": {"OBJECT_NAME": "BEIDOU-3 IGSO-1 (C38)", "OBJECT_ID": "2019-023A", "EPOCH": "2025-11-19T14:15:02.708640", "MEAN_MOTION": 1.00252177, "ECCENTRICITY": 0.0026966, "INCLINATION": 58.4003, "RA_OF_ASC_NODE": 39.8168, "ARG_OF_PERICENTER": 221.2202, "MEAN_ANOMALY": 126.9723, "EPHEMERIS_TYPE": 0, "CLASSIFICATION_TYPE": "U", "NORAD_CAT_ID": 44204, "ELEMENT_SET_NO": 999, "REV_AT_EPOCH": 510, "BSTAR": 0, "MEAN_MOTION_DOT": -2.26e-06, "MEAN_MOTION_DDOT": 0}, "tle": {"line1": "1 44204U 19023A   25323.59378135 -.00000226  00000+0  00000+0 0  9994", "line2": "2 44204  58.4003  39.8168 0026966 221.2202 126.9723  1.00252177  5102"}}, "geometry": {"type": "Point", "coordinates": [-100.08096431778172, -46.45682536397747]}}, {"type": "Feature", "properties": {"norad_id": 44231, "name": "BEIDOU-2 G8 (C01)", "group": "gnss", "lat": -1.3497726792636486, "lon": -51.213556312184465, "alt_km": 35753.377652611234, "timestamp": "2025-12-08T05:48:09.278880+00:00", "meta": {"OBJECT_NAME": "BEIDOU-2 G8 (C01)", "OBJECT_ID": "2019-027A", "EPOCH": "2025-12-07T22:52:56.534304", "MEAN_MOTION": 1.00269075, "ECCENTRICITY": 0.00085913, "INCLINATION": 1.6496, "RA_OF_ASC_NODE": 74.7187, "ARG_OF_PERICENTER": 255.3493, "MEAN_ANOMALY": 234.6834, "EPHEMERIS_TYPE": 0, "CLASSIFICATION_TYPE": "U", "NORAD_CAT_ID": 44231, "ELEMENT_SET_NO": 999, "REV_AT_EPOCH": 2416, "BSTAR": 0, "MEAN_MOTION_DOT": -2.45e-06, "MEAN_MOTION_DDOT": 0}, "tle": {"line1": "1 44231U 19027A   25341.95343211 -.00000245  00000+0  00000+0 0  9996", "line2": "2 44231   1.6496  74.7187 0008591 255.3493 234.6834  1.00269075 24163"}}, "geometry": {"type": "Point", "coordinates": [-51.213556312184465, -1.3497726792636486]}}, {"type": "Feature", "properties": {"norad_id": 44299, "name": "COSMOS 2534 (758)", "group": "gnss", "lat": 7.325528905510723, "lon": 15.509315671953097, "alt_km": 19137.932777144735, "timestamp": "2025-12-08T05:48:09.278893+00:00", "meta": {"OBJECT_NAME": "COSMOS 2534 (758)", "OBJECT_ID": "2019-030A", "EPOCH": "2025-12-07T18:53:39.162912", "MEAN_MOTION": 2.1310206, "ECCENTRICITY": 0.00089584, "INCLINATION": 64.3654, "RA_OF_ASC_NODE": 199.0599, "ARG_OF_PERICENTER": 283.6827, "MEAN_ANOMALY": 259.6101, "EPHEMERIS_TYPE": 0, "CLASSIFICATION_TYPE": "U", "NORAD_CAT_ID": 44299, "ELEMENT_SET_NO": 999, "REV_AT_EPOCH": 5084, "BSTAR": 0, "MEAN_MOTION_DOT": 5.4e-07, "MEAN_MOTION_DDOT": 0}, "tle": {"line1": "1 44299U 19030A   25341.78725883  .00000054  00000+0  00000+0 0  9991", "line2": "2 44299  64.3654 199.0599 0008958 283.6827 259.6101  2.13102060 50842"}}, "geometry": {"type": "Point", "coordinates": [15.509315671953097, 7.325528905510723]}}, {"type": "Feature", "properties": {"norad_id": 44337, "name": "BEIDOU-3 IGSO-2 (C39)", "group": "gnss", "lat": 43.564533617191074, "lon": -60.90986840282276, "alt_km": 35751.942853070745, "timestamp": "2025-12-08T05:48:09.278905+00:00", "meta": {"OBJECT_NAME": "BEIDOU-3 IGSO-2 (C39)", "OBJECT_ID": "2019-035A", "EPOCH": "2025-12-07T16:50:33.150912", "MEAN_MOTION": 1.002726, "ECCENTRICITY": 0.00374891, "INCLINATION": 55.2245, "RA_OF_ASC_NODE": 160.5453, "ARG_OF_PERICENTER": 202.4176, "MEAN_ANOMALY": 85.9349, "EPHEMERIS_TYPE": 0, "CLASSIFICATION_TYPE": "U", "NORAD_CAT_ID": 44337, "ELEMENT_SET_NO": 999, "REV_AT_EPOCH": 2374, "BSTAR": 0, "MEAN_MOTION_DOT": -7.8e-07, "MEAN_MOTION_DDOT": 0}, "tle": {"line1": "1 44337U 19035A   25341.70177258 -.00000078  00000+0  00000+0 0  9995", "line2": "2 44337  55.2245 160.5453 0037489 202.4176  85.9349  1.00272600 23745"}}, "geometry": {"type": "Point", "coordinates": [-60.90986840282276, 43.564533617191074]}}, {"type": "Feature", "properties": {"norad_id": 44506, "name": "GPS BIII-2  (PRN 18)", "group": "gnss", "lat": 26.300454661932772, "lon": -1.5778411952893023, "alt_km": 20327.46255343833, "timestamp": "2025-12-08T05:48:09.278918+00:00", "meta": {"OBJECT_NAME": "GPS BIII-2  (PRN 18)", "OBJECT_ID": "2019-056A", "EPOCH": "2025-12-07T10:30:03.799008", "MEAN_MOTION": 2.00565766, "ECCENTRICITY": 0.00577762, "INCLINATION": 55.723, "RA_OF_ASC_NODE": 338.7627, "ARG_OF_PERICENTER": 198.4737, "MEAN_ANOMALY": 333.4267, "EPHEMERIS_TYPE": 0, "CLASSIFICATION_TYPE": "U", "NORAD_CAT_ID": 44506, "ELEMENT_SET_NO": 999, "REV_AT_EPOCH": 4622, "BSTAR": 0, "MEAN_MOTION_DOT": -8.3e-07, "MEAN_MOTION_DDOT": 0}, "tle": {"line1": "1 44506U 19056A   25341.43754397 -.00000083  00000+0  00000+0 0  9997", "line2": "2 44506  55.7230 338.7627 0057776 198.4737 333.4267  2.00565766 46229"}}, "geometry": {"type": "Point", "coordinates": [-1.5778411952893023, 26.300454661932772]}}]}